SES-1                   
1 36516U 10016A   26160.46149902 -.00000097  00000+0  00000+0 0  9994
2 36516   0.0135 326.9046 0002717 113.2392 242.8412  1.00271538 58957
ASTRA 3B                
1 36581U 10021A   26160.48896558  .00000154  00000+0  00000+0 0  9993
2 36581   1.4507  83.6482 0004484 352.9737  20.7783  1.00274807 58794
COMSATBW-2              
1 36582U 10021B   26160.27317611  .00000105  00000+0  00000+0 0  9995
2 36582   0.0241  39.9096 0002668  52.3792 276.9019  1.00270151 58878
BEIDOU-2 G3             
1 36590U 10024A   26159.85831333 -.00000121  00000+0  00000+0 0  9990
2 36590   4.4951  61.5500 0008360 351.1630 233.2258  1.00272833 58689
BADR-5                  
1 36592U 10025A   26160.20529443  .00000170  00000+0  00000+0 0  9993
2 36592   0.0650 113.6974 0002979  78.9180 169.4147  1.00266117 53137
COMS 1                  
1 36744U 10032A   26154.99142485 -.00000334  00000+0  00000+0 0  9999
2 36744   4.7750  75.5286 0001016   4.5847 297.3769  1.00270643 50953
ARABSAT-5A              
1 36745U 10032B   26160.20529443  .00000170  00000+0  00000+0 0  9991
2 36745   0.0744  53.1584 0005516  45.7021 263.1042  1.00270128 58567
ECHOSTAR 15             
1 36792U 10034A   26160.46853604  .00000017  00000+0  00000+0 0  9992
2 36792   0.0138  26.9489 0001751  53.2922 227.4629  1.00271697 58240
BEIDOU-2 IGSO-1         
1 36828U 10036A   26159.63837581 -.00000038  00000+0  00000+0 0  9991
2 36828  54.3009 163.0368 0059254 225.1321 206.3324  1.00275040 58011
NILESAT 201             
1 36830U 10037A   26160.34046741 -.00000040  00000+0  00000+0 0  9998
2 36830   0.0322 124.7369 0004414 343.4268 265.1340  1.00271918 58298
RASCOM-QAF 1R           
1 36831U 10037B   26160.27109610  .00000035  00000+0  00000+0 0  9999
2 36831   0.0059  20.0733 0006776  55.6380 282.4211  1.00270954 58220
AEHF-1 (USA 214)        
1 36868U 10039A   26159.93327983  .00000162  00000+0  00000+0 0  9998
2 36868   8.1978  68.1546 0004023   5.1845 189.8811  1.00270906 53579
XM-5                    
1 37185U 10053A   26159.96257545 -.00000006  00000+0  00000+0 0  9994
2 37185   0.0671 272.7941 0002723 285.1463 290.7439  1.00270322 57402
BSAT-3B                 
1 37207U 10056B   26160.50619904 -.00000333  00000+0  00000+0 0  9998
2 37207   0.0791 249.8713 0001321 296.9420   3.1610  1.00271760 52025
BEIDOU-2 G4             
1 37210U 10057A   26160.54359152 -.00000096  00000+0  00000+0 0  9999
2 37210   3.6269  68.9921 0004896 199.5740 345.0612  1.00271837 57213
SKYTERRA 1              
1 37218U 10061A   26160.46198027 -.00000103  00000+0  00000+0 0  9994
2 37218   5.1079  50.8549 0002642  22.3883 249.5775  1.00270845 57116
HYLAS 1                 
1 37237U 10065A   26159.91682612  .00000105  00000+0  00000+0 0  9996
2 37237   5.6216  73.1189 0000984 314.3098 213.7339  1.00272680  6800
INTELSAT 17 (IS-17)     
1 37238U 10065B   26160.49753235  .00000015  00000+0  00000+0 0  9992
2 37238   0.0077 118.4705 0002565 331.0994  53.4133  1.00272629 53176
BEIDOU-2 IGSO-2         
1 37256U 10068A   26157.74761939 -.00000212  00000+0  00000+0 0  9999
2 37256  47.5684 271.9632 0055009 212.6052 147.2432  1.00287050 56698
EUTELSAT KA-SAT 9A      
1 37258U 10069A   26160.34358742  .00000079  00000+0  00000+0 0  9996
2 37258   0.0608  10.1222 0003951 120.5395 259.7586  1.00271735 43928
HISPASAT 30W-5          
1 37264U 10070A   26159.97936359 -.00000199  00000+0  00000+0 0  9992
2 37264   0.0303 152.8038 0005059 308.3309 118.8118  1.00272886 53103
KOREASAT 6              
1 37265U 10070B   26159.87444093 -.00000095  00000+0  00000+0 0  9996
2 37265   0.0116 294.2562 0002311 151.8779 285.8170  1.00272667 56685
BEIDOU-2 IGSO-3         
1 37384U 11013A   26159.67087483 -.00000189  00000+0  00000+0 0  9994
2 37384  62.3952  40.2341 0034466 184.5609  21.7196  1.00270208 55572
INTELSAT 28 (IS-28)     
1 37392U 11016A   26160.40690634 -.00000208  00000+0  00000+0 0  9999
2 37392   1.7851  82.7187 0003786   0.7235 289.1230  1.00272150 53205
YAHSAT 1A               
1 37393U 11016B   26160.49484566  .00000000  00000+0  00000+0 0  9993
2 37393   0.0172 347.6587 0002890 106.3190  34.5184  1.00269781 42337
SBIRS GEO-1 (USA 230)   
1 37481U 11019A   26159.92406904  .00000115  00000+0  00000+0 0  9997
2 37481   4.5185  53.1313 0002160  14.7620 213.8717  1.00272263 55319
TELSTAR 14R             
1 37602U 11021A   26160.47197883 -.00000263  00000+0  00000+0 0  9995
2 37602   0.0238  63.7678 0002344 358.9967 302.0064  1.00271585 55756
GSAT-8                  
1 37605U 11022A   26160.49536566  .00000102  00000+0  00000+0 0  9997
2 37605   2.1102  81.9156 0002261 209.0541 200.3007  1.00271237 53149
ST-2                    
1 37606U 11022B   26160.50186568 -.00000194  00000+0  00000+0 0  9995
2 37606   0.0160 282.2696 0001616 170.5394  73.7563  1.00268440 55207
ZHONGXING-10            
1 37677U 11026A   26160.50143236 -.00000171  00000+0  00000+0 0  9997
2 37677   1.0259  84.2940 0003615 359.1040  80.5269  1.00270497 54923
SES-3                   
1 37748U 11035A   26160.46302147 -.00000085  00000+0  00000+0 0  9993
2 37748   1.3058  83.1712 0002613 350.7393 247.6074  1.00270775 54516
KAZSAT-2                
1 37749U 11035B   26160.43028719 -.00000180  00000+0  00000+0 0  9997
2 37749   0.0342 245.5441 0001313 262.5636 351.0998  1.00269158 53324
