OBJECT_NAME,OBJECT_ID,EPOCH,MEAN_MOTION,ECCENTRICITY,INCLINATION,RA_OF_ASC_NODE,ARG_OF_PERICENTER,MEAN_ANOMALY,EPHEMERIS_TYPE,CLASSIFICATION_TYPE,NORAD_CAT_ID,ELEMENT_SET_NO,REV_AT_EPOCH,BSTAR,MEAN_MOTION_DOT,MEAN_MOTION_DDOT
SES-1,2010-016A,2026-06-09T11:04:33.515328,1.00271538,.0002717,0.0135,326.9046,113.2392,242.8412,0,U,36516,999,5895,0,-.97E-6,0
ASTRA 3B,2010-021A,2026-06-09T11:44:06.626112,1.00274807,.0004484,1.4507,83.6482,352.9737,20.7783,0,U,36581,999,5879,0,.154E-5,0
COMSATBW-2,2010-021B,2026-06-09T06:33:22.415904,1.00270151,.0002668,0.0241,39.9096,52.3792,276.9019,0,U,36582,999,5887,0,.105E-5,0
BEIDOU-2 G3,2010-024A,2026-06-08T20:35:58.271712,1.00272833,.00083606,4.4951,61.5500,351.1630,233.2258,0,U,36590,999,5868,0,-.121E-5,0
BADR-5,2010-025A,2026-06-09T04:55:37.438752,1.00266117,.0002979,0.0650,113.6974,78.9180,169.4147,0,U,36592,999,5313,0,.17E-5,0
COMS 1,2010-032A,2026-06-03T23:47:39.107040,1.00270643,.0001016,4.7750,75.5286,4.5847,297.3769,0,U,36744,999,5095,0,-.334E-5,0
ARABSAT-5A,2010-032B,2026-06-09T04:55:37.438752,1.00270128,.0005516,0.0744,53.1584,45.7021,263.1042,0,U,36745,999,5856,0,.17E-5,0
ECHOSTAR 15,2010-034A,2026-06-09T11:14:41.513856,1.00271697,.0001751,0.0138,26.9489,53.2922,227.4629,0,U,36792,999,5824,0,.17E-6,0
BEIDOU-2 IGSO-1,2010-036A,2026-06-08T15:19:15.669984,1.00275040,.00592541,54.3009,163.0368,225.1321,206.3324,0,U,36828,999,5801,0,-.38E-6,0
NILESAT 201,2010-037A,2026-06-09T08:10:16.384224,1.00271918,.0004414,0.0322,124.7369,343.4268,265.1340,0,U,36830,999,5829,0,-.4E-6,0
RASCOM-QAF 1R,2010-037B,2026-06-09T06:30:22.703040,1.00270954,.0006776,0.0059,20.0733,55.6380,282.4211,0,U,36831,999,5822,0,.35E-6,0
AEHF-1 (USA 214),2010-039A,2026-06-08T22:23:55.377312,1.00270906,.00040237,8.1978,68.1546,5.1845,189.8811,0,U,36868,999,5357,0,.162E-5,0
XM-5,2010-053A,2026-06-08T23:06:06.518880,1.00270322,.00027236,0.0671,272.7941,285.1463,290.7439,0,U,37185,999,5740,0,-.6E-7,0
BSAT-3B,2010-056B,2026-06-09T12:08:55.597056,1.00271760,.0001321,0.0791,249.8713,296.9420,3.1610,0,U,37207,999,5202,0,-.333E-5,0
BEIDOU-2 G4,2010-057A,2026-06-09T13:02:46.307328,1.00271837,.0004896,3.6269,68.9921,199.5740,345.0612,0,U,37210,999,5721,0,-.96E-6,0
SKYTERRA 1,2010-061A,2026-06-09T11:05:15.095328,1.00270845,.0002642,5.1079,50.8549,22.3883,249.5775,0,U,37218,999,5711,0,-.103E-5,0
HYLAS 1,2010-065A,2026-06-08T22:00:13.776768,1.00272680,.0000984,5.6216,73.1189,314.3098,213.7339,0,U,37237,999,680,0,.105E-5,0
INTELSAT 17 (IS-17),2010-065B,2026-06-09T11:56:26.795040,1.00272629,.0002565,0.0077,118.4705,331.0994,53.4133,0,U,37238,999,5317,0,.15E-6,0
BEIDOU-2 IGSO-2,2010-068A,2026-06-06T17:56:34.315296,1.00287050,.00550091,47.5684,271.9632,212.6052,147.2432,0,U,37256,999,5669,0,-.212E-5,0
EUTELSAT KA-SAT 9A,2010-069A,2026-06-09T08:14:45.953088,1.00271735,.0003951,0.0608,10.1222,120.5395,259.7586,0,U,37258,999,4392,0,.79E-6,0
HISPASAT 30W-5,2010-070A,2026-06-08T23:30:17.014176,1.00272886,.00050599,0.0303,152.8038,308.3309,118.8118,0,U,37264,999,5310,0,-.199E-5,0
KOREASAT 6,2010-070B,2026-06-08T20:59:11.696352,1.00272667,.00023112,0.0116,294.2562,151.8779,285.8170,0,U,37265,999,5668,0,-.95E-6,0
BEIDOU-2 IGSO-3,2011-013A,2026-06-08T16:06:03.585312,1.00270208,.00344665,62.3952,40.2341,184.5609,21.7196,0,U,37384,999,5557,0,-.189E-5,0
INTELSAT 28 (IS-28),2011-016A,2026-06-09T09:45:56.707776,1.00272150,.0003786,1.7851,82.7187,0.7235,289.1230,0,U,37392,999,5320,0,-.208E-5,0
YAHSAT 1A,2011-016B,2026-06-09T11:52:34.665024,1.00269781,.000289,0.0172,347.6587,106.3190,34.5184,0,U,37393,999,4233,0,0,0
SBIRS GEO-1 (USA 230),2011-019A,2026-06-08T22:10:39.565056,1.00272263,.000216,4.5185,53.1313,14.7620,213.8717,0,U,37481,999,5531,0,.115E-5,0
TELSTAR 14R,2011-021A,2026-06-09T11:19:38.970912,1.00271585,.0002344,0.0238,63.7678,358.9967,302.0064,0,U,37602,999,5575,0,-.263E-5,0
GSAT-8,2011-022A,2026-06-09T11:53:19.593024,1.00271237,.0002261,2.1102,81.9156,209.0541,200.3007,0,U,37605,999,5314,0,.102E-5,0
ST-2,2011-022B,2026-06-09T12:02:41.194752,1.00268440,.0001616,0.0160,282.2696,170.5394,73.7563,0,U,37606,999,5520,0,-.194E-5,0
ZHONGXING-10,2011-026A,2026-06-09T12:02:03.755904,1.00270497,.0003615,1.0259,84.2940,359.1040,80.5269,0,U,37677,999,5492,0,-.171E-5,0
SES-3,2011-035A,2026-06-09T11:06:45.055008,1.00270775,.0002613,1.3058,83.1712,350.7393,247.6074,0,U,37748,999,5451,0,-.85E-6,0
KAZSAT-2,2011-035B,2026-06-09T10:19:36.813216,1.00269158,.0001313,0.0342,245.5441,262.5636,351.0998,0,U,37749,999,5332,0,-.18E-5,0
